*******************************************************************************
 Revised: Jan 23, 2020            Hyperion / (Saturn)                       607
                        http://ssd.jpl.nasa.gov/?sat_phys_par
                          http://ssd.jpl.nasa.gov/?sat_elem

 SATELLITE PHYSICAL PROPERTIES:
  Mean Radius (km)        = 133    +- 8    Density (g/cm^3)  =  0.569 +- 0.108
  Mass (10^19 kg)         =   1.08 +- 0.52 Geometric Albedo  =  0.25
  GM (km^3/s^2)           = 0.3704 +- 0.02 V(1,0)            = +4.8 

 SATELLITE ORBITAL DATA (mean values with respect to local Laplace plane):
  Semi-major axis, a (km) = 1500.933(10^3) Orbital period    = 21.28 d
  Eccentricity, e         = 0.0232         Rotational period = Chaotic
  Inclination, i  (deg)   = 0.615
*******************************************************************************
 
 
*******************************************************************************
Ephemeris / WWW_USER Sun Oct 11 11:45:49 2020 Pasadena, USA      / Horizons
*******************************************************************************
Target body name: Hyperion (607)                  {source: sat427l_merged_DE438}
Center body name: Saturn (699)                    {source: sat427l_merged_DE438}
Center-site name: BODY CENTER
*******************************************************************************
Start time      : A.D. 2020-Oct-11 00:00:00.0000 TDB
Stop  time      : A.D. 2020-Nov-10 00:00:00.0000 TDB
Step-size       : 1440 minutes
*******************************************************************************
Center geodetic : 0.00000000,0.00000000,0.0000000 {W-lon(deg),Lat(deg),Alt(km)}
Center cylindric: 0.00000000,0.00000000,0.0000000 {W-lon(deg),Dxy(km),Dz(km)}
Center radii    : 60268.0 x 60268.0 x 54364.0 km  {Equator, meridian, pole}    
Output units    : AU-D
Output type     : GEOMETRIC cartesian states
Output format   : 2 (position and velocity)
Reference frame : Ecliptic of J2000.0
*******************************************************************************
JDTDB
   X     Y     Z
   VX    VY    VZ
*******************************************************************************
$$SOE
2459133.500000000 = A.D. 2020-Oct-11 00:00:00.0000 TDB 
 X = 3.643573903413987E-03 Y =-7.406358781088398E-03 Z = 3.362810684983125E-03
 VX= 2.818505976172301E-03 VY= 1.278934691098328E-03 VZ=-9.114757023594637E-04
2459134.500000000 = A.D. 2020-Oct-12 00:00:00.0000 TDB 
 X = 6.183148618153124E-03 Y =-5.704444703471872E-03 Z = 2.266081889099431E-03
 VX= 2.201106050996353E-03 VY= 2.099029001507771E-03 VZ=-1.263305680900401E-03
2459135.500000000 = A.D. 2020-Oct-13 00:00:00.0000 TDB 
 X = 7.940881995182185E-03 Y =-3.285365572071792E-03 Z = 8.848920832088743E-04
 VX= 1.272328006993012E-03 VY= 2.689177096561868E-03 VZ=-1.470003100504783E-03
2459136.500000000 = A.D. 2020-Oct-14 00:00:00.0000 TDB 
 X = 8.672500856369832E-03 Y =-4.418648147856020E-04 Z =-6.105879198070064E-04
 VX= 1.791884723278308E-04 VY= 2.935149738051697E-03 VZ=-1.488417368149317E-03
2459137.500000000 = A.D. 2020-Oct-15 00:00:00.0000 TDB 
 X = 8.308100539213992E-03 Y = 2.460248559785266E-03 Z =-2.030293495410146E-03
 VX=-8.886489254477254E-04 VY= 2.810239732593835E-03 VZ=-1.323357629781195E-03
2459138.500000000 = A.D. 2020-Oct-16 00:00:00.0000 TDB 
 X = 6.957293774741962E-03 Y = 5.075238888190422E-03 Z =-3.211443719943907E-03
 VX=-1.772876631371096E-03 VY= 2.376752389466977E-03 VZ=-1.021241193060010E-03
2459139.500000000 = A.D. 2020-Oct-17 00:00:00.0000 TDB 
 X = 4.852526756658553E-03 Y = 7.147100635388204E-03 Z =-4.048018794914382E-03
 VX=-2.388976099101385E-03 VY= 1.743170368286670E-03 VZ=-6.445539250793633E-04
2459140.500000000 = A.D. 2020-Oct-18 00:00:00.0000 TDB 
 X = 2.274225328669713E-03 Y = 8.531127567918418E-03 Z =-4.494391282560746E-03
 VX=-2.721767419751488E-03 VY= 1.017322051741381E-03 VZ=-2.488004710774849E-04
2459141.500000000 = A.D. 2020-Oct-19 00:00:00.0000 TDB 
 X =-5.050806710862541E-04 Y = 9.179032871270859E-03 Z =-4.552503538577533E-03
 VX=-2.797282634334534E-03 VY= 2.823789819438183E-04 VZ= 1.268304304016042E-04
2459142.500000000 = A.D. 2020-Oct-20 00:00:00.0000 TDB 
 X =-3.248602914752383E-03 Y = 9.111561544584338E-03 Z =-4.255470061883824E-03
 VX=-2.657574631409766E-03 VY=-4.062463415837744E-04 VZ= 4.585973088495158E-04
2459143.500000000 = A.D. 2020-Oct-21 00:00:00.0000 TDB 
 X =-5.762891917053929E-03 Y = 8.393444465122970E-03 Z =-3.654294929013865E-03
 VX=-2.345663050807474E-03 VY=-1.014623329622185E-03 VZ= 7.336207631572364E-04
2459144.500000000 = A.D. 2020-Oct-22 00:00:00.0000 TDB 
 X =-7.895223689571998E-03 Y = 7.115885714221199E-03 Z =-2.809344357071000E-03
 VX=-1.899431047276363E-03 VY=-1.522510540364647E-03 VZ= 9.453888480172054E-04
2459145.500000000 = A.D. 2020-Oct-23 00:00:00.0000 TDB 
 X =-9.527647340014061E-03 Y = 5.386321311822280E-03 Z =-1.785785497227103E-03
 VX=-1.350721903627837E-03 VY=-1.916813222666808E-03 VZ= 1.090391923732323E-03
2459146.500000000 = A.D. 2020-Oct-24 00:00:00.0000 TDB 
 X =-1.057157584914559E-02 Y = 3.323443199371176E-03 Z =-6.516104185408161E-04
 VX=-7.266487656187970E-04 VY=-2.187544900995959E-03 VZ= 1.166226929710762E-03
2459147.500000000 = A.D. 2020-Oct-25 00:00:00.0000 TDB 
 X =-1.096408207956498E-02 Y = 1.055747991237698E-03 Z = 5.227366406945598E-04
 VX=-5.201731560716309E-05 VY=-2.324705164096923E-03 VZ= 1.170258941507046E-03
2459148.500000000 = A.D. 2020-Oct-26 00:00:00.0000 TDB 
 X =-1.066731255894126E-02 Y =-1.277762122946906E-03 Z = 1.663947925105354E-03
 VX= 6.473540362115839E-04 VY=-2.317193975187615E-03 VZ= 1.099398978360042E-03
2459149.500000000 = A.D. 2020-Oct-27 00:00:00.0000 TDB 
 X =-9.671139281118117E-03 Y =-3.526281323882061E-03 Z = 2.695458525861760E-03
 VX= 1.341156720114340E-03 VY=-2.152603793267004E-03 VZ= 9.503354102069412E-04
2459150.500000000 = A.D. 2020-Oct-28 00:00:00.0000 TDB 
 X =-7.999666441790596E-03 Y =-5.526491731682622E-03 Z = 3.537715437714280E-03
 VX= 1.990511930963528E-03 VY=-1.818699374752589E-03 VZ= 7.206646841845082E-04
2459151.500000000 = A.D. 2020-Oct-29 00:00:00.0000 TDB 
 X =-5.722101359619629E-03 Y =-7.104453027017451E-03 Z = 4.110168006710400E-03
 VX= 2.543382028381401E-03 VY=-1.307524623661730E-03 VZ= 4.113911504995339E-04
2459152.500000000 = A.D. 2020-Oct-30 00:00:00.0000 TDB 
 X =-2.967453289147594E-03 Y =-8.083732592287876E-03 Z = 4.336754471269633E-03
 VX= 2.932094137534790E-03 VY=-6.237534940683723E-04 VZ= 3.135130183493201E-05
2459153.500000000 = A.D. 2020-Oct-31 00:00:00.0000 TDB 
 X = 6.043986186891749E-05 Y =-8.304084886480359E-03 Z = 4.156705132668472E-03
 VX= 3.075897121831951E-03 VY= 2.022287255669562E-04 VZ=-3.964788893518175E-04
2459154.500000000 = A.D. 2020-Nov-01 00:00:00.0000 TDB 
 X = 3.076360673324347E-03 Y =-7.655302993203955E-03 Z = 3.542140269501805E-03
 VX= 2.896912138445775E-03 VY= 1.098402049571615E-03 VZ=-8.285243923010727E-04
2459155.500000000 = A.D. 2020-Nov-02 00:00:00.0000 TDB 
 X = 5.731896558810806E-03 Y =-6.123667847885149E-03 Z = 2.519610792793855E-03
 VX= 2.353508746729202E-03 VY= 1.944300240773714E-03 VZ=-1.200405656400682E-03
2459156.500000000 = A.D. 2020-Nov-03 00:00:00.0000 TDB 
 X = 7.672753854748694E-03 Y =-3.833437441269995E-03 Z = 1.185394236219524E-03
 VX= 1.481591759017598E-03 VY= 2.590751898785447E-03 VZ=-1.440793762147782E-03
2459157.500000000 = A.D. 2020-Nov-04 00:00:00.0000 TDB 
 X = 8.628093172264548E-03 Y =-1.051452018160289E-03 Z =-3.007679488475614E-04
 VX= 4.107576979028567E-04 VY= 2.912199973686184E-03 VZ=-1.499185458661024E-03
2459158.500000000 = A.D. 2020-Nov-05 00:00:00.0000 TDB 
 X = 8.489991094849113E-03 Y = 1.866158877728810E-03 Z =-1.750006990816799E-03
 VX=-6.736076923958228E-04 VY= 2.862522134544342E-03 VZ=-1.370247854656193E-03
2459159.500000000 = A.D. 2020-Nov-06 00:00:00.0000 TDB 
 X = 7.333278076895547E-03 Y = 4.564568963925194E-03 Z =-2.991641771998532E-03
 VX=-1.603262918560393E-03 VY= 2.487683127362866E-03 VZ=-1.093162190853187E-03
2459160.500000000 = A.D. 2020-Nov-07 00:00:00.0000 TDB 
 X = 5.369257487421184E-03 Y = 6.767072318861839E-03 Z =-3.907241084753174E-03
 VX=-2.278070617883522E-03 VY= 1.889645710055407E-03 VZ=-7.286436057033618E-04
2459161.500000000 = A.D. 2020-Nov-08 00:00:00.0000 TDB 
 X = 2.871929065650196E-03 Y = 8.306320203765490E-03 Z =-4.439205986636754E-03
 VX=-2.670066285247784E-03 VY= 1.178191608733709E-03 VZ=-3.344066745626258E-04
2459162.500000000 = A.D. 2020-Nov-09 00:00:00.0000 TDB 
 X = 1.171612262521161E-04 Y = 9.115511909984652E-03 Z =-4.580519328132693E-03
 VX=-2.798581664537852E-03 VY= 4.419061562383262E-04 VZ= 4.699768930794672E-05
2459163.500000000 = A.D. 2020-Nov-10 00:00:00.0000 TDB 
 X =-2.650587747112700E-03 Y = 9.202277929181634E-03 Z =-4.358460653753322E-03
 VX=-2.703238833171861E-03 VY=-2.586931517557775E-04 VZ= 3.890356196112304E-04
$$EOE
*******************************************************************************
Coordinate system description:

  Ecliptic at the standard reference epoch

    Reference epoch: J2000.0
    X-Y plane: adopted Earth orbital plane at the reference epoch
               Note: obliquity of 84381.448 arcseconds (IAU76) wrt ICRF equator
    X-axis   : ICRF
    Z-axis   : perpendicular to the X-Y plane in the directional (+ or -) sense
               of Earth's north pole at the reference epoch.

  Symbol meaning [1 au= 149597870.700 km, 1 day= 86400.0 s]:

    JDTDB    Julian Day Number, Barycentric Dynamical Time
      X      X-component of position vector (au)
      Y      Y-component of position vector (au)
      Z      Z-component of position vector (au)
      VX     X-component of velocity vector (au/day)                           
      VY     Y-component of velocity vector (au/day)                           
      VZ     Z-component of velocity vector (au/day)                           

Geometric states/elements have no aberrations applied.


 Computations by ...
     Solar System Dynamics Group, Horizons On-Line Ephemeris System
     4800 Oak Grove Drive, Jet Propulsion Laboratory
     Pasadena, CA  91109   USA
     Information  : https://ssd.jpl.nasa.gov/
     Documentation: https://ssd.jpl.nasa.gov/?horizons_doc
     Connect      : https://ssd.jpl.nasa.gov/?horizons (browser)
                    telnet ssd.jpl.nasa.gov 6775       (command-line)
                    e-mail command interface available
                    Script and CGI interfaces available
     Author       : Jon.D.Giorgini@jpl.nasa.gov
*******************************************************************************
